# Nearby stars and star orbits out to 25 light years, supplementary
# to Celestia's stars.dat.

# Data are mainly derived from the RECONS survey tabulation at
# http://joy.chara.gsu.edu/RECONS/TOP100.htm. In particular, the distances
# given are derived from RECONS's weighted average parallaxes, rather than
# pure Hipparcos data.

# Orbits are obtained largely from the Sixth Catalog of Orbits of Visual
# Binary Stars (http://ad.usno.navy.mil/wds/orb6.html) and the Ninth
# Catalogue of Spectroscopic Binary Orbits (http://sb9.astro.ulb.ac.be).

# For binary orbits, the direction of an orbit's node on the plane of the 
# sky is often unknown - the orbits given below will appear correct when
# viewed from Earth, but the true orbit may be tilted either towards 
# or away from the Earth.
# For a few orbits the nature of the node is known - these are
# marked with the phrase "fully specified orientation".
# Barycenters positions are mainly based on mass estimates from RECONS:
# the figures used are added as comments belows.

0 "Sol:Sun"
{
	RA 0
	Dec 0
	Distance 0.00326167 
	SpectralType "G2V"
	AbsMag 4.83

	RotationPeriod      609.12  # 25.38 days
	Obliquity             7.25  # correct orientation relative to ecliptic
	EquatorAscendingNode 75.77  # 
	RotationOffset       23.00  # standard meridian
}

70890 # Proxima Cen
{
	RA 217.429167
	Dec -62.679444
	Distance 4.225
	SpectralType "M5.5V"
	AppMag 11.09
}

Barycenter "Rigel Kentaurus:Toliman:ALF Cen:Gliese 559"
{
	RA 219.917516  # mass ratio 1.09:0.92
	Dec -60.837128 #
	Distance 4.365
}

71683 # ALF Cen A
{
	OrbitBarycenter "ALF Cen"
	SpectralType "G2V"
	AppMag 0.01

	EllipticalOrbit {
		Period          79.914
		SemiMajorAxis   10.765   # mass ratio 1.09:0.92
		Eccentricity    0.5179
		Inclination	82.986
		AscendingNode   67.726
		ArgOfPericenter 3.772
		MeanAnomaly     200.119
	}
}

71681 # ALF cen B
{
	OrbitBarycenter "ALF Cen"
	SpectralType "K0V"
	AppMag 1.34

	EllipticalOrbit {
		Period          79.914
		SemiMajorAxis   12.755   # mass ratio 1.09:0.92
		Eccentricity    0.5179
		Inclination	82.986
		AscendingNode   67.726
		ArgOfPericenter 183.772
		MeanAnomaly     200.119
	}
}

87937 # Barnard's Star
{
	RA 269.452083
	Dec 4.693333
	Distance 5.963
	SpectralType "M4.0V"
	AppMag 9.53
}

"Wolf 359:CN Leo:Gliese 406"
{	
	RA 164.121783
	Dec 7.014722
	Distance 7.782
	SpectralType "M6.0V"
	AppMag 13.44
}

54035 # Lalande 21185
{
	RA 165.834167
	Dec 35.970000
	Distance 8.290
	SpectralType "M2.0V"
	AppMag 7.47
}

Barycenter "Sirius:Alhabor:ALF CMa:9 CMa:Gliese 244"
{
	RA 101.287083
	Dec -16.716111
	Distance 8.583
}

32349 "Sirius A:Alhabor A:ALF CMa A:9 CMa A:Gliese 244 A"
{
	OrbitBarycenter "Sirius"
	SpectralType "A1V"
	AppMag -1.43

	EllipticalOrbit {              # fully specified orientation
		Period          50.09
		SemiMajorAxis   6.73   # mass ratio 1.99:1.03
		Eccentricity    0.5923
		Inclination	97.51
		AscendingNode   161.33
		ArgOfPericenter 4.56
		MeanAnomaly     40.89
	}
}

"Sirius B:Alhabor B:ALF CMa B:9 CMa B:Gliese 244 B"
{
	OrbitBarycenter "Sirius"
	SpectralType "DA2"
	AppMag 8.44

	EllipticalOrbit {              # fully specified orientation
		Period          50.09
		SemiMajorAxis   13.00  # mass ratio 1.99:1.03
		Eccentricity    0.592
		Inclination	97.51
		AscendingNode   161.33
		ArgOfPericenter 184.56
		MeanAnomaly     40.89
	}
}

Barycenter "Luyten 726-8:Gliese 65"
{
	RA 24.755529
	Dec -17.950278
	Distance 8.728
}

"Luyten 726-8 A:Gliese 65 A:BL Cet"
{
	OrbitBarycenter "Luyten 726-8"
	SpectralType "M5.5V"
	AppMag 12.54

	EllipticalOrbit {
		Period          26.52
		SemiMajorAxis   2.61    # mass ratio 0.1:0.1
		Eccentricity    0.62
		Inclination	101.3
		AscendingNode   159.5
		ArgOfPericenter 39.7
		MeanAnomaly     21.3
	}
}

"Luyten 726-8 B:Gliese 65 B:UV Cet"
{
	OrbitBarycenter "Luyten 726-8"
	SpectralType "M6.0V"
	AppMag 12.99

	EllipticalOrbit {
		Period          26.52
		SemiMajorAxis   2.61   # mass ratio 0.1:0.1
		Eccentricity    0.62
		Inclination	101.3
		AscendingNode   159.5
		ArgOfPericenter 219.7
		MeanAnomaly     21.3
	}
}

92403 # Ross 154
{
	RA 282.455833
	Dec -23.836111
	Distance 9.681
	SpectralType "M3.5V"
	AppMag 10.43
}

"Ross 248:HH And:Gliese 905"
{
	RA 355.479875
	Dec 44.177222
	Distance 10.322
	SpectralType "M5.5V"
	AppMag 12.29
}

16537 # Eps Eri
{
	RA 53.232500
	Dec -9.458333
	Distance 10.522
	SpectralType "K2V"
	AppMag 3.73
}

114046 # Lacaille 9352
{
	RA 346.466667
	Dec -35.853056
	Distance 10.742
	SpectralType "M1.5V"
	AppMag 7.34
}

57548 # Ross 128
{
	RA 176.935000
	Dec 0.804444
	Distance 10.919
	SpectralType "M4.0V"
	AppMag 11.13
}

# Delfosse, X. et al. (1999) "New Neighbours I: 13 new
# companions to nearby M dwarfs" A&A, 344, 897
# (http://aa.springer.de/papers/9344003/2300897/small.htm)
Barycenter "Luyten 789-6:Gliese 866"
{
	RA 339.640833
	Dec -15.300806
	Distance 11.266
}

Barycenter "Luyten 789-6 A:Gliese 866 A"
{
	OrbitBarycenter "Luyten 789-6"

	EllipticalOrbit {
		Period          2.2506
		SemiMajorAxis   0.42   # mass ratio 0.106:(0.105+0.095)
		Eccentricity    0.437
		Inclination	96.2
		AscendingNode   133.5
		ArgOfPericenter 76.4
		MeanAnomaly     241.7
	}
}

"Luyten 789-6 Aa:Gliese 866 Aa:EZ Aqr"
{
	OrbitBarycenter "Luyten 789-6 A"
	SpectralType "M5.0V"
	AppMag 13.33

	EllipticalOrbit {
		Period          0.010	# 3.8dys
		SemiMajorAxis   0.013	# to match period and mass ratio 0.105:0.095
		Inclination	96	# guess - to match plane of B
		AscendingNode   133	# guess - to match plane of B
	}
}

"Luyten 789-6 Ab:Gliese 866 Ab"
{
	OrbitBarycenter "Luyten 789-6 A"
	SpectralType "M6V" # from apparent magnitude
	AppMag 14.03

	EllipticalOrbit {
		Period          0.010	# 3.8dys
		SemiMajorAxis   0.014	# to match period and mass ratio 0.105:0.095
		Inclination	96	# guess - to match plane of B
		AscendingNode   133	# guess - to match plane of B
		ArgOfPericenter 180
	}
}

"Luyten 789-6 B:Gliese 866 B"
{
	OrbitBarycenter "Luyten 789-6"
	SpectralType "M5V" # from apparent magnitude
	AppMag 13.27

	EllipticalOrbit {
		Period          2.2506
		SemiMajorAxis   0.78   # mass ratio 0.106:(0.105+0.095)
		Eccentricity    0.437
		Inclination	96.2
		AscendingNode   133.5
		ArgOfPericenter 256.4
		MeanAnomaly     241.7
	}
}

Barycenter "Procyon:Elgomaisa:ALF CMi:10 CMi:Gliese 280"
{
	RA 114.82724
	Dec 5.2275076
	Distance 11.402
}

37279 "Procyon A:Elgomaisa A:ALF CMi A:10 CMi A:Gliese 280 A"
{
	OrbitBarycenter "Procyon"
	SpectralType "F5IV"
	AppMag 0.38

	EllipticalOrbit {
		Period          40.82
		SemiMajorAxis   4.13   # mass ratio 1.57:0.6
		Eccentricity    0.407
		Inclination	42.9
		AscendingNode   27.8
		ArgOfPericenter 88.4
		MeanAnomaly     282.5
	}
}

"Procyon B:Elgomaisa B:ALF CMi B:10 CMi B:Gliese 280 B"
{
	OrbitBarycenter "Procyon"
	SpectralType "DA"
	AppMag 10.70

	EllipticalOrbit {
		Period          40.82
		SemiMajorAxis   10.80  # mass ratio 1.57:0.6
		Eccentricity    0.407
		Inclination	42.9
		AscendingNode   27.8
		ArgOfPericenter 268.4
		MeanAnomaly     282.5
	}
}

Barycenter "61 Cyg:Gliese 820"
{
	RA 316.714507   # mass ratio 0.7:0.63
	Dec 38.738139   #
	Distance 11.403
}

104214 # 61 Cyg A
{
	OrbitBarycenter "61 Cyg"
	SpectralType "K5V"
	AppMag 5.21

	EllipticalOrbit {
		Period          659
		SemiMajorAxis   40.40 # mass ratio 0.7:0.63
		Eccentricity	0.48
		Inclination	132
		AscendingNode   165
		ArgOfPericenter 195
		MeanAnomaly     165
	}
}

104217 # 61 Cyg B
{
	OrbitBarycenter "61 Cyg"
	SpectralType "K7V"
	AppMag 6.03

	EllipticalOrbit {
		Period          659
		SemiMajorAxis   44.90 # mass ratio 0.7:0.63
		Eccentricity	0.48
		Inclination	132
		AscendingNode   165
		ArgOfPericenter 15
		MeanAnomaly     165
	}
}

Barycenter "Struve 2398:Gliese 725"
{
	RA 280.701371   # mass ratio 0.35:0.26
	Dec 59.624455   #
	Distance 11.525
}

91768 # Struve 2398 A
{
	OrbitBarycenter "Struve 2398"
	SpectralType "M3.0V"
	AppMag 8.90

	EllipticalOrbit {
		Period          408
		SemiMajorAxis   20.91 # mass ratio 0.35:0.26
		Eccentricity	0.53
		Inclination	112
		AscendingNode   146.1
		ArgOfPericenter 243.5
		MeanAnomaly     198.5
	}
}

91772 # Struve 2398 B
{
	OrbitBarycenter "Struve 2398"
	SpectralType "M3.5V"
	AppMag 9.69

	EllipticalOrbit {
		Period          408
		SemiMajorAxis   28.14 # mass ratio 0.35:0.26
		Eccentricity	0.53
		Inclination	112
		AscendingNode   146.1
		ArgOfPericenter 63.5
		MeanAnomaly     198.5
	}
}

Barycenter "Groombridge 34:Gliese 15"
{
	RA 4.595417
	Dec 44.023056
	Distance 11.624
}

1475 "Groombridge 34 A:Gliese 15 A:GX And"
{
	OrbitBarycenter "Groombridge 34"
	SpectralType "M1.5V"
	AppMag 8.08

	EllipticalOrbit {
		Period          2600
		SemiMajorAxis   36.1   # mass ratio 0.49:0.16
		Eccentricity	0
		Inclination	67.9
		AscendingNode   308.4
		MeanLongitude   23.0
	}
}

"Groombridge 34 B:Gliese 15 B:GQ And"
{
	OrbitBarycenter "Groombridge 34"
	SpectralType "M3.5V"
	AppMag 11.06

	EllipticalOrbit {
		Period          2600
		SemiMajorAxis   110.7  # mass ratio 0.49:0.16
		Eccentricity	0
		Inclination	67.9
		AscendingNode   308.4
		MeanLongitude   203.0
	}
}

Barycenter "EPS Ind:Gliese 845" # orbit of A & B components unknown
{
	RA 330.841091   # mass ratio 0.77:(0.04+0.03)
	Dec -56.780045
	Distance 11.824
}

108870 "EPS Ind A:Gliese 845 A"
{
	RA 330.82266
	Dec -56.779804
	Distance 11.824
	SpectralType "K5V"
	AppMag 4.69
}

# McCaughrean, M.J. et al.(2004) "Eps Indi Ba,Bb: The nearest binary
# brown dwarf" A&A 413, 1029.
# (http://arxiv.org/PS_cache/astro-ph/pdf/0309/0309256.pdf)
Barycenter "EPS Ind B:Gliese 845 B"
{
	RA 331.043833
	Dec -56.782694
	Distance 11.824
}

"EPS Ind Ba:Gliese 845 Ba"
{
	OrbitBarycenter "EPS Ind B"
	SpectralType "T1V"
	AbsMag 25.8 # for approximate radius in Celestia

	EllipticalOrbit {
		Period 		15.5 # approximate orbit
		SemiMajorAxis	0.99 # mass ratio 47:28J
	}
}

